[{"OBJECT_NAME":"STARLINK-5732","OBJECT_ID":"2023-020D","EPOCH":"2026-03-09T04:58:15.357216","MEAN_MOTION":15.02530703,"ECCENTRICITY":9.817e-5,"INCLINATION":43.0025,"RA_OF_ASC_NODE":7.5285,"ARG_OF_PERICENTER":258.253,"MEAN_ANOMALY":101.8203,"EPHEMERIS_TYPE":0,"CLASSIFICATION_TYPE":"U","NORAD_CAT_ID":55572,"ELEMENT_SET_NO":999,"REV_AT_EPOCH":16884,"BSTAR":-7.1304503e-5,"MEAN_MOTION_DOT":-1.166e-5,"MEAN_MOTION_DDOT":0},{"OBJECT_NAME":"USA 40 R\/B DEB","OBJECT_ID":"1989-061BL","EPOCH":"2026-03-08T18:14:08.922336","MEAN_MOTION":10.32541686,"ECCENTRICITY":0.22838925,"INCLINATION":56.9874,"RA_OF_ASC_NODE":200.6595,"ARG_OF_PERICENTER":164.6797,"MEAN_ANOMALY":203.6986,"EPHEMERIS_TYPE":0,"CLASSIFICATION_TYPE":"U","NORAD_CAT_ID":23388,"ELEMENT_SET_NO":999,"REV_AT_EPOCH":7306,"BSTAR":0.026272074,"MEAN_MOTION_DOT":0.00054893,"MEAN_MOTION_DDOT":0}]
